[{"OBJECT_NAME":"NUSAT-43 (R DIENG-KUNTZ)","OBJECT_ID":"2023-084AN","EPOCH":"2026-03-08T21:55:35.625792","MEAN_MOTION":15.74780826,"ECCENTRICITY":0.00059701,"INCLINATION":97.4369,"RA_OF_ASC_NODE":210.0765,"ARG_OF_PERICENTER":240.2474,"MEAN_ANOMALY":119.8197,"EPHEMERIS_TYPE":0,"CLASSIFICATION_TYPE":"U","NORAD_CAT_ID":56968,"ELEMENT_SET_NO":999,"REV_AT_EPOCH":15344,"BSTAR":0.0011289476,"MEAN_MOTION_DOT":0.00168767,"MEAN_MOTION_DDOT":0},{"OBJECT_NAME":"STARLINK-11444 [DTC]","OBJECT_ID":"2024-249A","EPOCH":"2026-03-09T17:32:51.468864","MEAN_MOTION":15.70845109,"ECCENTRICITY":0.00014637,"INCLINATION":43.0002,"RA_OF_ASC_NODE":167.7216,"ARG_OF_PERICENTER":276.5566,"MEAN_ANOMALY":83.5135,"EPHEMERIS_TYPE":0,"CLASSIFICATION_TYPE":"U","NORAD_CAT_ID":62409,"ELEMENT_SET_NO":999,"REV_AT_EPOCH":6948,"BSTAR":0.0016750294,"MEAN_MOTION_DOT":0.00220321,"MEAN_MOTION_DDOT":0}]
