NUSAT-43 (R DIENG-KUNTZ)
1 56968U 23084AN  26067.91360678  .00168767  00000+0  11289-2 0  9999
2 56968  97.4369 210.0765 0005970 240.2474 119.8197 15.74780826153440
STARLINK-11444 [DTC]    
1 62409U 24249A   26068.73115125  .00220321  00000+0  16750-2 0  9999
2 62409  43.0002 167.7216 0001464 276.5566  83.5135 15.70845109 69486
